[{"OBJECT_NAME":"COSMOS 2251 DEB","OBJECT_ID":"1993-036BRW","EPOCH":"2026-04-05T04:40:57.650880","MEAN_MOTION":14.5721753,"ECCENTRICITY":0.00460577,"INCLINATION":74.0207,"RA_OF_ASC_NODE":268.5617,"ARG_OF_PERICENTER":359.0637,"MEAN_ANOMALY":1.0432,"EPHEMERIS_TYPE":0,"CLASSIFICATION_TYPE":"U","NORAD_CAT_ID":38064,"ELEMENT_SET_NO":999,"REV_AT_EPOCH":73517,"BSTAR":0.00092174897,"MEAN_MOTION_DOT":4.197e-5,"MEAN_MOTION_DDOT":0},{"OBJECT_NAME":"COSMOS 2251 DEB","OBJECT_ID":"1993-036BRZ","EPOCH":"2026-04-02T16:31:18.376032","MEAN_MOTION":14.61537025,"ECCENTRICITY":0.00709758,"INCLINATION":74.0162,"RA_OF_ASC_NODE":62.0683,"ARG_OF_PERICENTER":183.9038,"MEAN_ANOMALY":352.8627,"EPHEMERIS_TYPE":0,"CLASSIFICATION_TYPE":"U","NORAD_CAT_ID":38067,"ELEMENT_SET_NO":999,"REV_AT_EPOCH":64176,"BSTAR":0.00032538189,"MEAN_MOTION_DOT":1.642e-5,"MEAN_MOTION_DDOT":0},{"OBJECT_NAME":"COSMOS 2251 DEB","OBJECT_ID":"1993-036BSA","EPOCH":"2026-03-28T11:23:09.945888","MEAN_MOTION":14.36179829,"ECCENTRICITY":0.00261363,"INCLINATION":74.0195,"RA_OF_ASC_NODE":113.9319,"ARG_OF_PERICENTER":183.8605,"MEAN_ANOMALY":176.235,"EPHEMERIS_TYPE":0,"CLASSIFICATION_TYPE":"U","NORAD_CAT_ID":38068,"ELEMENT_SET_NO":999,"REV_AT_EPOCH":68164,"BSTAR":0.00019883759,"MEAN_MOTION_DOT":5.56e-6,"MEAN_MOTION_DDOT":0},{"OBJECT_NAME":"COSMOS 2251 DEB","OBJECT_ID":"1993-036BSM","EPOCH":"2026-03-30T20:53:11.494752","MEAN_MOTION":14.78981076,"ECCENTRICITY":0.0115062,"INCLINATION":73.9375,"RA_OF_ASC_NODE":143.8942,"ARG_OF_PERICENTER":351.652,"MEAN_ANOMALY":8.2735,"EPHEMERIS_TYPE":0,"CLASSIFICATION_TYPE":"U","NORAD_CAT_ID":38197,"ELEMENT_SET_NO":999,"REV_AT_EPOCH":87351,"BSTAR":0.0025203,"MEAN_MOTION_DOT":0.0002084,"MEAN_MOTION_DDOT":0},{"OBJECT_NAME":"COSMOS 2251 DEB","OBJECT_ID":"1993-036BSP","EPOCH":"2026-03-30T03:32:44.088000","MEAN_MOTION":13.64988367,"ECCENTRICITY":0.03681726,"INCLINATION":73.954,"RA_OF_ASC_NODE":245.6761,"ARG_OF_PERICENTER":151.2147,"MEAN_ANOMALY":210.9844,"EPHEMERIS_TYPE":0,"CLASSIFICATION_TYPE":"U","NORAD_CAT_ID":38199,"ELEMENT_SET_NO":999,"REV_AT_EPOCH":62487,"BSTAR":0.0010684603,"MEAN_MOTION_DOT":1.352e-5,"MEAN_MOTION_DDOT":0},{"OBJECT_NAME":"COSMOS 2251 DEB","OBJECT_ID":"1993-036BSY","EPOCH":"2026-04-05T02:27:23.026176","MEAN_MOTION":14.89361116,"ECCENTRICITY":0.00059875,"INCLINATION":74.0037,"RA_OF_ASC_NODE":212.8592,"ARG_OF_PERICENTER":289.8052,"MEAN_ANOMALY":246.3259,"EPHEMERIS_TYPE":0,"CLASSIFICATION_TYPE":"U","NORAD_CAT_ID":38208,"ELEMENT_SET_NO":999,"REV_AT_EPOCH":72843,"BSTAR":0.0028262419,"MEAN_MOTION_DOT":0.0002691,"MEAN_MOTION_DDOT":0},{"OBJECT_NAME":"COSMOS 2251 DEB","OBJECT_ID":"1993-036BTC","EPOCH":"2026-04-02T18:01:10.942176","MEAN_MOTION":14.78458379,"ECCENTRICITY":0.00933707,"INCLINATION":74.0523,"RA_OF_ASC_NODE":218.7571,"ARG_OF_PERICENTER":256.189,"MEAN_ANOMALY":102.8883,"EPHEMERIS_TYPE":0,"CLASSIFICATION_TYPE":"U","NORAD_CAT_ID":38212,"ELEMENT_SET_NO":999,"REV_AT_EPOCH":82950,"BSTAR":0.0005125118,"MEAN_MOTION_DOT":3.986e-5,"MEAN_MOTION_DDOT":0},{"OBJECT_NAME":"COSMOS 2251 DEB","OBJECT_ID":"1993-036BTL","EPOCH":"2026-04-04T13:15:07.140672","MEAN_MOTION":15.02137183,"ECCENTRICITY":0.00021843,"INCLINATION":74.012,"RA_OF_ASC_NODE":199.5416,"ARG_OF_PERICENTER":265.6985,"MEAN_ANOMALY":94.3953,"EPHEMERIS_TYPE":0,"CLASSIFICATION_TYPE":"U","NORAD_CAT_ID":38220,"ELEMENT_SET_NO":999,"REV_AT_EPOCH":73059,"BSTAR":0.0025933765,"MEAN_MOTION_DOT":0.00034249,"MEAN_MOTION_DDOT":0},{"OBJECT_NAME":"COSMOS 2251 DEB","OBJECT_ID":"1993-036BTP","EPOCH":"2026-03-28T23:52:59.974176","MEAN_MOTION":14.39555399,"ECCENTRICITY":0.00810534,"INCLINATION":74.0098,"RA_OF_ASC_NODE":347.8932,"ARG_OF_PERICENTER":73.6907,"MEAN_ANOMALY":303.9472,"EPHEMERIS_TYPE":0,"CLASSIFICATION_TYPE":"U","NORAD_CAT_ID":38479,"ELEMENT_SET_NO":999,"REV_AT_EPOCH":66216,"BSTAR":0.0016612471,"MEAN_MOTION_DOT":5.367e-5,"MEAN_MOTION_DDOT":0},{"OBJECT_NAME":"COSMOS 2251 DEB","OBJECT_ID":"1993-036BTR","EPOCH":"2026-04-04T22:31:26.340384","MEAN_MOTION":13.95398004,"ECCENTRICITY":0.02270994,"INCLINATION":73.9319,"RA_OF_ASC_NODE":171.8333,"ARG_OF_PERICENTER":89.6824,"MEAN_ANOMALY":273.0325,"EPHEMERIS_TYPE":0,"CLASSIFICATION_TYPE":"U","NORAD_CAT_ID":38481,"ELEMENT_SET_NO":999,"REV_AT_EPOCH":60639,"BSTAR":0.0012304788,"MEAN_MOTION_DOT":2.047e-5,"MEAN_MOTION_DDOT":0},{"OBJECT_NAME":"COSMOS 2251 DEB","OBJECT_ID":"1993-036BTT","EPOCH":"2026-03-30T11:58:41.666304","MEAN_MOTION":14.29379376,"ECCENTRICITY":0.011438,"INCLINATION":74.2612,"RA_OF_ASC_NODE":178.7699,"ARG_OF_PERICENTER":252.1139,"MEAN_ANOMALY":106.7512,"EPHEMERIS_TYPE":0,"CLASSIFICATION_TYPE":"U","NORAD_CAT_ID":38483,"ELEMENT_SET_NO":999,"REV_AT_EPOCH":65017,"BSTAR":0.0012458903,"MEAN_MOTION_DOT":3.384e-5,"MEAN_MOTION_DDOT":0},{"OBJECT_NAME":"COSMOS 2251 DEB","OBJECT_ID":"1993-036BTW","EPOCH":"2026-04-03T09:30:56.228832","MEAN_MOTION":14.7755382,"ECCENTRICITY":0.00312433,"INCLINATION":73.9416,"RA_OF_ASC_NODE":345.2254,"ARG_OF_PERICENTER":111.0767,"MEAN_ANOMALY":7.7778,"EPHEMERIS_TYPE":0,"CLASSIFICATION_TYPE":"U","NORAD_CAT_ID":38486,"ELEMENT_SET_NO":999,"REV_AT_EPOCH":77081,"BSTAR":0.0028954693,"MEAN_MOTION_DOT":0.00020876,"MEAN_MOTION_DDOT":0},{"OBJECT_NAME":"COSMOS 2251 DEB","OBJECT_ID":"1993-036BTX","EPOCH":"2026-04-04T21:13:53.937120","MEAN_MOTION":15.30936144,"ECCENTRICITY":0.0026261,"INCLINATION":73.9666,"RA_OF_ASC_NODE":154.4192,"ARG_OF_PERICENTER":293.7664,"MEAN_ANOMALY":66.0785,"EPHEMERIS_TYPE":0,"CLASSIFICATION_TYPE":"U","NORAD_CAT_ID":38487,"ELEMENT_SET_NO":999,"REV_AT_EPOCH":68523,"BSTAR":0.0022090957,"MEAN_MOTION_DOT":0.00067307,"MEAN_MOTION_DDOT":0},{"OBJECT_NAME":"COSMOS 2251 DEB","OBJECT_ID":"1993-036BUC","EPOCH":"2026-03-31T04:53:45.649248","MEAN_MOTION":14.95558083,"ECCENTRICITY":0.00397675,"INCLINATION":73.996,"RA_OF_ASC_NODE":277.9291,"ARG_OF_PERICENTER":51.0573,"MEAN_ANOMALY":309.4144,"EPHEMERIS_TYPE":0,"CLASSIFICATION_TYPE":"U","NORAD_CAT_ID":39546,"ELEMENT_SET_NO":999,"REV_AT_EPOCH":66056,"BSTAR":0.0015919179,"MEAN_MOTION_DOT":0.00017948,"MEAN_MOTION_DDOT":0},{"OBJECT_NAME":"COSMOS 2251 DEB","OBJECT_ID":"1993-036BUD","EPOCH":"2026-03-28T22:37:34.032864","MEAN_MOTION":15.18081519,"ECCENTRICITY":0.0011747,"INCLINATION":74.0054,"RA_OF_ASC_NODE":158.6364,"ARG_OF_PERICENTER":290.162,"MEAN_ANOMALY":245.0652,"EPHEMERIS_TYPE":0,"CLASSIFICATION_TYPE":"U","NORAD_CAT_ID":39547,"ELEMENT_SET_NO":999,"REV_AT_EPOCH":65628,"BSTAR":0.0040281,"MEAN_MOTION_DOT":0.00083175,"MEAN_MOTION_DDOT":0},{"OBJECT_NAME":"COSMOS 2251 DEB","OBJECT_ID":"1993-036BUK","EPOCH":"2026-04-04T20:31:52.005792","MEAN_MOTION":14.00364776,"ECCENTRICITY":0.02073503,"INCLINATION":74.0268,"RA_OF_ASC_NODE":133.9961,"ARG_OF_PERICENTER":244.1715,"MEAN_ANOMALY":113.7904,"EPHEMERIS_TYPE":0,"CLASSIFICATION_TYPE":"U","NORAD_CAT_ID":39553,"ELEMENT_SET_NO":999,"REV_AT_EPOCH":77200,"BSTAR":0.0011560477,"MEAN_MOTION_DOT":2.037e-5,"MEAN_MOTION_DDOT":0}]
